FENGYUN 1C DEB          
1 35199U 99025DPF 26112.19539391  .00001837  00000+0  12359-2 0  9994
2 35199  98.4415 255.9075 0116652 203.7143 155.8621 13.98511370940081
FENGYUN 1C DEB          
1 35200U 99025DPG 26115.39340873  .00000307  00000+0  41909-3 0  9992
2 35200  98.8894  81.9852 0353460  83.5942  66.9703 13.42054793676966
FENGYUN 1C DEB          
1 35201U 99025DPH 26115.29592844  .00000108  00000+0  83446-4 0  9991
2 35201  98.7057 125.2801 0005943 225.8817 150.6706 14.11108421889038
FENGYUN 1C DEB          
1 35202U 99025DPJ 26115.57987010  .00000471  00000+0  68079-3 0  9993
2 35202 100.0735 164.0203 0377256  48.7312 314.5667 13.34942996587621
FENGYUN 1C DEB          
1 35203U 99025DPK 26114.18953627  .00000873  00000+0  10218-2 0  9994
2 35203 102.0857 108.3046 0513032 229.9921 125.5087 13.26917510614079
FENGYUN 1C DEB          
1 35204U 99025DPL 26115.52271214  .00005735  00000+0  14476-2 0  9991
2 35204  99.0053 318.2497 0035899 283.3193 105.8716 14.51082090928691
FENGYUN 1C DEB          
1 35207U 99025DPP 26115.25842693  .00008975  00000+0  19264-2 0  9998
2 35207  98.6889 224.2453 0053645 205.2264 154.6312 14.57954107668480
FENGYUN 1C DEB          
1 35208U 99025DPQ 26108.32084627  .00000848  00000+0  57727-3 0  9992
2 35208  98.8879 129.0524 0102904 163.1976 197.2639 14.00074007923342
FENGYUN 1C DEB          
1 35210U 99025DPS 26116.29166807  .00005559  00000+0  19224-2 0  9994
2 35210  99.0956 132.1900 0048197 203.9811 173.3157 14.35501540920523
FENGYUN 1C DEB          
1 35217U 99025DPZ 26113.60058553  .00001624  00000+0  17336-2 0  9992
2 35217 101.8805  61.1225 0300876 350.7456   8.8206 13.58108759630093
FENGYUN 1C DEB          
1 35220U 99025DQC 26107.17575357  .00001848  00000+0  82537-3 0  9991
2 35220  99.0161 185.2859 0041824 308.2799  51.4619 14.23512462649673
FENGYUN 1C DEB          
1 35223U 99025DQF 26114.97972032  .00003365  00000+0  30122-3 0  9990
2 35223  98.9806 120.4705 0122774 259.4507  99.2857 14.91104677958665
FENGYUN 1C DEB          
1 35229U 99025DQM 26112.97110904  .00016777  00000+0  28885-2 0  9999
2 35229  98.4455 200.4708 0042609 165.2471 194.9987 14.68031179664278
FENGYUN 1C DEB          
1 35231U 99025DQP 26115.56742101 -.00000014  00000+0  15026-4 0  9993
2 35231  98.6963 160.4450 0037912  63.8119 296.6945 14.14539135933942
FENGYUN 1C DEB          
1 35233U 99025DQR 26113.27413514  .00003958  00000+0  11648-2 0  9997
2 35233  98.7691 221.1569 0039866 225.4484 161.7328 14.43807022930736
FENGYUN 1C DEB          
1 35234U 99025DQS 26115.05225757  .00003060  00000+0  51905-3 0  9991
2 35234  98.0527 145.6220 0098148 200.4053 159.3219 14.66812626963093
