[{"OBJECT_NAME":"FENGYUN 1C DEB","OBJECT_ID":"1999-025DPF","EPOCH":"2026-04-22T04:41:22.033824","MEAN_MOTION":13.9851137,"ECCENTRICITY":0.01166529,"INCLINATION":98.4415,"RA_OF_ASC_NODE":255.9075,"ARG_OF_PERICENTER":203.7143,"MEAN_ANOMALY":155.8621,"EPHEMERIS_TYPE":0,"CLASSIFICATION_TYPE":"U","NORAD_CAT_ID":35199,"ELEMENT_SET_NO":999,"REV_AT_EPOCH":94008,"BSTAR":0.0012358991,"MEAN_MOTION_DOT":1.837e-5,"MEAN_MOTION_DDOT":0},{"OBJECT_NAME":"FENGYUN 1C DEB","OBJECT_ID":"1999-025DPG","EPOCH":"2026-04-25T09:26:30.514272","MEAN_MOTION":13.42054793,"ECCENTRICITY":0.03534609,"INCLINATION":98.8894,"RA_OF_ASC_NODE":81.9852,"ARG_OF_PERICENTER":83.5942,"MEAN_ANOMALY":66.9703,"EPHEMERIS_TYPE":0,"CLASSIFICATION_TYPE":"U","NORAD_CAT_ID":35200,"ELEMENT_SET_NO":999,"REV_AT_EPOCH":67696,"BSTAR":0.00041909405,"MEAN_MOTION_DOT":3.07e-6,"MEAN_MOTION_DDOT":0},{"OBJECT_NAME":"FENGYUN 1C DEB","OBJECT_ID":"1999-025DPH","EPOCH":"2026-04-25T07:06:08.217216","MEAN_MOTION":14.11108421,"ECCENTRICITY":0.0005943,"INCLINATION":98.7057,"RA_OF_ASC_NODE":125.2801,"ARG_OF_PERICENTER":225.8817,"MEAN_ANOMALY":150.6706,"EPHEMERIS_TYPE":0,"CLASSIFICATION_TYPE":"U","NORAD_CAT_ID":35201,"ELEMENT_SET_NO":999,"REV_AT_EPOCH":88903,"BSTAR":8.3446e-5,"MEAN_MOTION_DOT":1.08e-6,"MEAN_MOTION_DDOT":0},{"OBJECT_NAME":"FENGYUN 1C DEB","OBJECT_ID":"1999-025DPJ","EPOCH":"2026-04-25T13:55:00.776640","MEAN_MOTION":13.34942996,"ECCENTRICITY":0.03772561,"INCLINATION":100.0735,"RA_OF_ASC_NODE":164.0203,"ARG_OF_PERICENTER":48.7312,"MEAN_ANOMALY":314.5667,"EPHEMERIS_TYPE":0,"CLASSIFICATION_TYPE":"U","NORAD_CAT_ID":35202,"ELEMENT_SET_NO":999,"REV_AT_EPOCH":58762,"BSTAR":0.0006807851,"MEAN_MOTION_DOT":4.71e-6,"MEAN_MOTION_DDOT":0},{"OBJECT_NAME":"FENGYUN 1C DEB","OBJECT_ID":"1999-025DPK","EPOCH":"2026-04-24T04:32:55.933728","MEAN_MOTION":13.2691751,"ECCENTRICITY":0.05130321,"INCLINATION":102.0857,"RA_OF_ASC_NODE":108.3046,"ARG_OF_PERICENTER":229.9921,"MEAN_ANOMALY":125.5087,"EPHEMERIS_TYPE":0,"CLASSIFICATION_TYPE":"U","NORAD_CAT_ID":35203,"ELEMENT_SET_NO":999,"REV_AT_EPOCH":61407,"BSTAR":0.0010217857,"MEAN_MOTION_DOT":8.73e-6,"MEAN_MOTION_DDOT":0},{"OBJECT_NAME":"FENGYUN 1C DEB","OBJECT_ID":"1999-025DPL","EPOCH":"2026-04-25T12:32:42.328896","MEAN_MOTION":14.5108209,"ECCENTRICITY":0.00358998,"INCLINATION":99.0053,"RA_OF_ASC_NODE":318.2497,"ARG_OF_PERICENTER":283.3193,"MEAN_ANOMALY":105.8716,"EPHEMERIS_TYPE":0,"CLASSIFICATION_TYPE":"U","NORAD_CAT_ID":35204,"ELEMENT_SET_NO":999,"REV_AT_EPOCH":92869,"BSTAR":0.0014476042,"MEAN_MOTION_DOT":5.735e-5,"MEAN_MOTION_DDOT":0},{"OBJECT_NAME":"FENGYUN 1C DEB","OBJECT_ID":"1999-025DPP","EPOCH":"2026-04-25T06:12:08.086752","MEAN_MOTION":14.57954107,"ECCENTRICITY":0.0053645,"INCLINATION":98.6889,"RA_OF_ASC_NODE":224.2453,"ARG_OF_PERICENTER":205.2264,"MEAN_ANOMALY":154.6312,"EPHEMERIS_TYPE":0,"CLASSIFICATION_TYPE":"U","NORAD_CAT_ID":35207,"ELEMENT_SET_NO":999,"REV_AT_EPOCH":66848,"BSTAR":0.0019264,"MEAN_MOTION_DOT":8.975e-5,"MEAN_MOTION_DDOT":0},{"OBJECT_NAME":"FENGYUN 1C DEB","OBJECT_ID":"1999-025DPQ","EPOCH":"2026-04-18T07:42:01.117728","MEAN_MOTION":14.00074007,"ECCENTRICITY":0.01029042,"INCLINATION":98.8879,"RA_OF_ASC_NODE":129.0524,"ARG_OF_PERICENTER":163.1976,"MEAN_ANOMALY":197.2639,"EPHEMERIS_TYPE":0,"CLASSIFICATION_TYPE":"U","NORAD_CAT_ID":35208,"ELEMENT_SET_NO":999,"REV_AT_EPOCH":92334,"BSTAR":0.00057727262,"MEAN_MOTION_DOT":8.48e-6,"MEAN_MOTION_DDOT":0},{"OBJECT_NAME":"FENGYUN 1C DEB","OBJECT_ID":"1999-025DPS","EPOCH":"2026-04-26T07:00:00.121248","MEAN_MOTION":14.3550154,"ECCENTRICITY":0.0048197,"INCLINATION":99.0956,"RA_OF_ASC_NODE":132.19,"ARG_OF_PERICENTER":203.9811,"MEAN_ANOMALY":173.3157,"EPHEMERIS_TYPE":0,"CLASSIFICATION_TYPE":"U","NORAD_CAT_ID":35210,"ELEMENT_SET_NO":999,"REV_AT_EPOCH":92052,"BSTAR":0.0019224,"MEAN_MOTION_DOT":5.559e-5,"MEAN_MOTION_DDOT":0},{"OBJECT_NAME":"FENGYUN 1C DEB","OBJECT_ID":"1999-025DPZ","EPOCH":"2026-04-23T14:24:50.589792","MEAN_MOTION":13.58108759,"ECCENTRICITY":0.03008761,"INCLINATION":101.8805,"RA_OF_ASC_NODE":61.1225,"ARG_OF_PERICENTER":350.7456,"MEAN_ANOMALY":8.8206,"EPHEMERIS_TYPE":0,"CLASSIFICATION_TYPE":"U","NORAD_CAT_ID":35217,"ELEMENT_SET_NO":999,"REV_AT_EPOCH":63009,"BSTAR":0.0017336233,"MEAN_MOTION_DOT":1.624e-5,"MEAN_MOTION_DDOT":0},{"OBJECT_NAME":"FENGYUN 1C DEB","OBJECT_ID":"1999-025DQC","EPOCH":"2026-04-17T04:13:05.108448","MEAN_MOTION":14.23512462,"ECCENTRICITY":0.00418244,"INCLINATION":99.0161,"RA_OF_ASC_NODE":185.2859,"ARG_OF_PERICENTER":308.2799,"MEAN_ANOMALY":51.4619,"EPHEMERIS_TYPE":0,"CLASSIFICATION_TYPE":"U","NORAD_CAT_ID":35220,"ELEMENT_SET_NO":999,"REV_AT_EPOCH":64967,"BSTAR":0.00082536793,"MEAN_MOTION_DOT":1.848e-5,"MEAN_MOTION_DDOT":0},{"OBJECT_NAME":"FENGYUN 1C DEB","OBJECT_ID":"1999-025DQF","EPOCH":"2026-04-24T23:30:47.835648","MEAN_MOTION":14.91104677,"ECCENTRICITY":0.0122774,"INCLINATION":98.9806,"RA_OF_ASC_NODE":120.4705,"ARG_OF_PERICENTER":259.4507,"MEAN_ANOMALY":99.2857,"EPHEMERIS_TYPE":0,"CLASSIFICATION_TYPE":"U","NORAD_CAT_ID":35223,"ELEMENT_SET_NO":999,"REV_AT_EPOCH":95866,"BSTAR":0.00030122259,"MEAN_MOTION_DOT":3.365e-5,"MEAN_MOTION_DDOT":0},{"OBJECT_NAME":"FENGYUN 1C DEB","OBJECT_ID":"1999-025DQM","EPOCH":"2026-04-22T23:18:23.821056","MEAN_MOTION":14.68031179,"ECCENTRICITY":0.00426098,"INCLINATION":98.4455,"RA_OF_ASC_NODE":200.4708,"ARG_OF_PERICENTER":165.2471,"MEAN_ANOMALY":194.9987,"EPHEMERIS_TYPE":0,"CLASSIFICATION_TYPE":"U","NORAD_CAT_ID":35229,"ELEMENT_SET_NO":999,"REV_AT_EPOCH":66427,"BSTAR":0.0028884852,"MEAN_MOTION_DOT":0.00016777,"MEAN_MOTION_DDOT":0},{"OBJECT_NAME":"FENGYUN 1C DEB","OBJECT_ID":"1999-025DQP","EPOCH":"2026-04-25T13:37:05.175264","MEAN_MOTION":14.14539135,"ECCENTRICITY":0.00379121,"INCLINATION":98.6963,"RA_OF_ASC_NODE":160.445,"ARG_OF_PERICENTER":63.8119,"MEAN_ANOMALY":296.6945,"EPHEMERIS_TYPE":0,"CLASSIFICATION_TYPE":"U","NORAD_CAT_ID":35231,"ELEMENT_SET_NO":999,"REV_AT_EPOCH":93394,"BSTAR":1.5026194e-5,"MEAN_MOTION_DOT":-1.4e-7,"MEAN_MOTION_DDOT":0},{"OBJECT_NAME":"FENGYUN 1C DEB","OBJECT_ID":"1999-025DQR","EPOCH":"2026-04-23T06:34:45.276096","MEAN_MOTION":14.43807022,"ECCENTRICITY":0.00398666,"INCLINATION":98.7691,"RA_OF_ASC_NODE":221.1569,"ARG_OF_PERICENTER":225.4484,"MEAN_ANOMALY":161.7328,"EPHEMERIS_TYPE":0,"CLASSIFICATION_TYPE":"U","NORAD_CAT_ID":35233,"ELEMENT_SET_NO":999,"REV_AT_EPOCH":93073,"BSTAR":0.0011648049,"MEAN_MOTION_DOT":3.958e-5,"MEAN_MOTION_DDOT":0},{"OBJECT_NAME":"FENGYUN 1C DEB","OBJECT_ID":"1999-025DQS","EPOCH":"2026-04-25T01:15:15.054048","MEAN_MOTION":14.66812626,"ECCENTRICITY":0.00981482,"INCLINATION":98.0527,"RA_OF_ASC_NODE":145.622,"ARG_OF_PERICENTER":200.4053,"MEAN_ANOMALY":159.3219,"EPHEMERIS_TYPE":0,"CLASSIFICATION_TYPE":"U","NORAD_CAT_ID":35234,"ELEMENT_SET_NO":999,"REV_AT_EPOCH":96309,"BSTAR":0.00051905409,"MEAN_MOTION_DOT":3.06e-5,"MEAN_MOTION_DDOT":0}]
